     2.100          NAVIGATION                              RINEX VERSION / TYPE
fic2rin                                 05/18/2015 00:12:27 PGM / RUN BY / DATE
                                                            END OF HEADER
 8 15  5 17 23 59 44.0 -.220062676817D-03 -.159161572810D-11  .000000000000D+00
     .150000000000D+02 -.142218750000D+03  .531629287351D-08 -.190800495666D+01
    -.748410820961D-05  .773840642069D-02  .613369047642D-05  .515370986938D+04
     .863840000000D+05  .122934579849D-06  .240185640006D+01 -.912696123123D-07
     .983018254450D+00  .268500000000D+03  .874997079826D+00 -.786961351528D-08
    -.207865801302D-09  .100000000000D+01  .184500000000D+04  .000000000000D+00
     .240000000000D+01  .630000000000D+02 -.190921127796D-07  .150000000000D+02
     .792060000000D+05  .400000000000D+01
21 15  5 17 23 59 44.0 -.446984544396D-03 -.352429196937D-11  .000000000000D+00
     .110000000000D+02  .247187500000D+02  .589060251010D-08 -.408281507226D+00
     .147894024849D-05  .225671760272D-01  .501982867718D-05  .515355407906D+04
     .863840000000D+05 -.193715095520D-06 -.182340263839D+01  .193715095520D-06
     .933438854778D+00  .269781250000D+03 -.190868185909D+01 -.913288042113D-08
     .227866634417D-09  .100000000000D+01  .184500000000D+04  .000000000000D+00
     .240000000000D+01  .000000000000D+00 -.116415321827D-07  .110000000000D+02
     .792060000000D+05  .400000000000D+01
28 15  5 17 23 59 44.0  .440528616309D-03  .261479726760D-11  .000000000000D+00
     .600000000000D+01 -.134656250000D+03  .380980155067D-08 -.217288886529D+01
    -.680424273014D-05  .195293163415D-01  .761076807976D-05  .515369729424D+04
     .863840000000D+05  .223517417908D-06  .245248286286D+01  .162050127983D-06
     .988949519751D+00  .238281250000D+03 -.166391791192D+01 -.749995526038D-08
    -.163578242262D-09  .100000000000D+01  .184500000000D+04  .000000000000D+00
     .240000000000D+01  .000000000000D+00 -.111758708954D-07  .600000000000D+01
     .792060000000D+05  .400000000000D+01
 1 15  5 18  0  0  0.0 -.545382499695D-05  .454747350886D-12  .000000000000D+00
     .800000000000D+01  .233750000000D+02  .512164190837D-08  .119242640041D+01
     .143051147461D-05  .422094436362D-02  .465847551823D-05  .515365720177D+04
     .864000000000D+05  .931322574615D-07 -.180070893151D+01  .763684511185D-07
     .961737445551D+00  .288062500000D+03  .374527592532D+00 -.842427947648D-08
     .950039572962D-10  .100000000000D+01  .184500000000D+04  .000000000000D+00
     .240000000000D+01  .000000000000D+00  .558793544769D-08  .800000000000D+01
     .792060000000D+05  .400000000000D+01
 2 15  5 18  0  0  0.0  .566472765058D-03  .227373675443D-11  .000000000000D+00
     .180000000000D+02  .218750000000D+02  .559344727524D-08  .162406963997D+01
     .996515154839D-06  .145726730116D-01  .523775815964D-05  .515354642677D+04
     .864000000000D+05 -.352039933205D-06 -.183808595740D+01 -.242143869400D-07
     .940383784794D+00  .274000000000D+03 -.226543652864D+01 -.863607401286D-08
     .127505311108D-09  .100000000000D+01  .184500000000D+04  .000000000000D+00
     .240000000000D+01  .000000000000D+00 -.204890966415D-07  .180000000000D+02
     .792060000000D+05  .400000000000D+01
 3 15  5 18  0  0  0.0  .329638365656D-03  .977706804406D-11  .000000000000D+00
     .630000000000D+02 -.323437500000D+02  .457233331318D-08  .312278423476D+01
    -.180117785931D-05  .913685769774D-03  .913627445698D-05  .515368683815D+04
     .864000000000D+05 -.428408384323D-07 -.759731752848D+00  .167638063431D-07
     .959277177219D+00  .200093750000D+03 -.264820843112D+01 -.800961934708D-08
    -.760388816103D-09  .100000000000D+01  .184500000000D+04  .000000000000D+00
     .240000000000D+01  .000000000000D+00  .186264514923D-08  .630000000000D+02
     .792060000000D+05  .400000000000D+01
 4 15  5 18  0  0  0.0 -.151614658535D-04 -.159161572810D-11  .000000000000D+00
     .720000000000D+02  .251875000000D+02  .565523556326D-08  .935275342155D+00
     .142492353916D-05  .112564516021D-01  .492669641972D-05  .515368491364D+04
     .864000000000D+05 -.126659870148D-06 -.182279906765D+01  .154599547386D-06
     .939435316486D+00  .275437500000D+03  .105745929881D+01 -.881679582636D-08
     .120004998690D-09  .100000000000D+01  .184500000000D+04  .000000000000D+00
     .240000000000D+01  .000000000000D+00 -.651925802231D-08  .720000000000D+02
     .792060000000D+05  .400000000000D+01
 5 15  5 18  0  0  0.0 -.240355264395D-03  .466116034659D-11  .000000000000D+00
     .850000000000D+02 -.291250000000D+02  .483162982820D-08 -.217881444130D+01
    -.151991844177D-05  .411958817858D-02  .947155058384D-05  .515355548477D+04
     .864000000000D+05  .335276126862D-07 -.766627155772D+00 -.279396772385D-07
     .946497661770D+00  .189906250000D+03  .375911429648D+00 -.807283626603D-08
    -.726101673621D-09  .100000000000D+01  .184500000000D+04  .000000000000D+00
     .240000000000D+01  .000000000000D+00 -.107102096081D-07  .850000000000D+02
     .792060000000D+05  .400000000000D+01
 6 15  5 18  0  0  0.0  .163046177477D-03  .920863385545D-11  .000000000000D+00
     .460000000000D+02  .159062500000D+02  .503413826349D-08  .274444696509D+01
     .711530447006D-06  .162688200362D-03  .471994280815D-05  .515373826218D+04
     .864000000000D+05 -.111758708954D-07 -.180921801061D+01  .111758708954D-07
     .961627137139D+00  .288406250000D+03 -.272119803984D+01 -.827070165078D-08
     .932181686252D-10  .100000000000D+01  .184500000000D+04  .000000000000D+00
     .240000000000D+01  .000000000000D+00  .419095158577D-08  .460000000000D+02
     .792060000000D+05  .400000000000D+01
 7 15  5 18  0  0  0.0  .462813302875D-03  .250111042988D-11  .000000000000D+00
     .830000000000D+02  .431250000000D+02  .463162149705D-08  .548199860919D+00
     .228732824326D-05  .834305945318D-02  .424683094025D-06  .515371645927D+04
     .864000000000D+05  .614672899246D-07  .135933860920D+01  .173225998878D-06
     .970106071349D+00  .376406250000D+03 -.275536045539D+01 -.853428405862D-08
     .192508018732D-09  .100000000000D+01  .184500000000D+04  .000000000000D+00
     .240000000000D+01  .000000000000D+00 -.111758708954D-07  .830000000000D+02
     .792060000000D+05  .400000000000D+01
 9 15  5 18  0  0  0.0 -.157568603754D-03 -.613908923697D-11  .000000000000D+00
     .600000000000D+02  .121218750000D+03  .415838749925D-08  .257043648614D+01
     .633113086224D-05  .461953692138D-03  .107828527689D-04  .515360634422D+04
     .864000000000D+05 -.353902578354D-07  .282960122333D+00 -.633299350739D-07
     .957989687887D+00  .172781250000D+03  .265485474883D+01 -.782996900678D-08
     .542879755978D-10  .100000000000D+01  .184500000000D+04  .000000000000D+00
     .240000000000D+01  .000000000000D+00  .465661287308D-09  .600000000000D+02
     .792060000000D+05  .400000000000D+01
10 15  5 18  0  0  0.0 -.175298191607D-03 -.159161572810D-11  .000000000000D+00
     .480000000000D+02 -.251562500000D+02  .485734518507D-08 -.184152693236D+01
    -.135041773319D-05  .146886062576D-01  .915862619877D-05  .515368189049D+04
     .864000000000D+05  .249594449997D-06 -.751480760293D+00 -.102445483208D-06
     .941305309076D+00  .190843750000D+03  .930646120758D+00 -.792425864861D-08
    -.660741808263D-09  .100000000000D+01  .184500000000D+04  .000000000000D+00
     .340000000000D+01  .000000000000D+00 -.279396772385D-08  .480000000000D+02
     .792060000000D+05  .400000000000D+01
11 15  5 18  0  0  0.0 -.578904524446D-03 -.261479726760D-11  .000000000000D+00
     .340000000000D+02  .474687500000D+02  .667742099853D-08  .608749491626D+00
     .265613198280D-05  .157539998181D-01  .677630305290D-05  .515372952271D+04
     .864000000000D+05 -.216066837311D-06 -.215087949100D+01  .577419996262D-07
     .892842610364D+00  .216812500000D+03  .140262303288D+01 -.938503378147D-08
     .400730977768D-09  .100000000000D+01  .184500000000D+04  .000000000000D+00
     .240000000000D+01  .000000000000D+00 -.121071934700D-07  .340000000000D+02
     .792060000000D+05  .400000000000D+01
12 15  5 18  0  0  0.0  .293810386211D-03  .318323145621D-11  .000000000000D+00
     .270000000000D+02 -.146875000000D+03  .402123892931D-08  .101879414429D-01
    -.756047666073D-05  .558812625241D-02  .751204788685D-05  .515368510056D+04
     .864000000000D+05  .800937414169D-07  .242844695351D+01  .800937414169D-07
     .989771287650D+00  .254843750000D+03  .590330065640D+00 -.796818904991D-08
    -.318227541169D-09  .100000000000D+01  .184500000000D+04  .000000000000D+00
     .240000000000D+01  .000000000000D+00 -.121071934700D-07  .270000000000D+02
     .792060000000D+05  .400000000000D+01
13 15  5 18  0  0  0.0 -.115337781608D-03 -.329691829393D-11  .000000000000D+00
     .800000000000D+02  .142812500000D+03  .383051669925D-08  .129972746385D+01
     .739656388760D-05  .516808847897D-02  .100526958704D-04  .515369115257D+04
     .864000000000D+05  .173225998878D-06  .397875415440D+00 -.838190317154D-07
     .974660610778D+00  .192375000000D+03  .208773577885D+01 -.781246827781D-08
     .303226916332D-09  .100000000000D+01  .184500000000D+04  .000000000000D+00
     .240000000000D+01  .000000000000D+00 -.111758708954D-07  .800000000000D+02
     .792060000000D+05  .400000000000D+01
14 15  5 18  0  0  0.0  .627669505775D-04 -.284217094304D-11  .000000000000D+00
     .290000000000D+02  .128093750000D+03  .383265964566D-08 -.307567882413D+01
     .664591789246D-05  .810100801755D-02  .110678374767D-04  .515360342407D+04
     .864000000000D+05  .353902578354D-07  .363356637434D+00 -.447034835815D-07
     .967171852670D+00  .167187500000D+03 -.197890409202D+01 -.759745932182D-08
     .244653047924D-09  .100000000000D+01  .184500000000D+04  .000000000000D+00
     .240000000000D+01  .000000000000D+00 -.931322574615D-08  .290000000000D+02
     .792060000000D+05  .400000000000D+01
